IDSAP,MC_STORE_ID,IDwws,Name,URL,ADDRESS,ZIP,PHONE,WHATS,FAX,MAIL,LAT,LONG,OPENDAYS,CLOSEDDAYS,SPECIALDAYS
E600,121956,1119,@Tienda Online,http://specials.mediamarkt.es/tiendas/online,Calle Garrotxa NÃºmero 2-4 Edificio Oceano II,08820,902102573,,,atencionalcliente@mediamarkt.es,41.318579,2.076054,,,
E288,28395,370,A CoruÃ±a - A CoruÃ±a,http://specials.mediamarkt.es/tiendas/a-coruna,"Marineda City, Ocio & Shopping / Crta. de BaÃ±os a Arteixo Pol. Ind. La Grela NÂº43 LOCAL L.0.01",15008,981147100,,981147109,penay@mediamarkt.es,43.343005,-8.427957,"10 de Enero; 24 de Marzo; 3 y 24 de Julio; 1 de Noviembre; 4, 8, 11 y 18 de Diciembre.",Todos los domingos (salvo los indicados).1 y 6 de Enero; 9 de Febrero; 24 y 25 de Marzo; 17 de Mayo; 25 de Julio; 15 de Agosto; 7 y 12 de Octubre; 1 de Noviembre; 6 y 26 de Diciembre. ,
E285,131953,367,A CoruÃ±a - Ferrol,http://specials.mediamarkt.es/tiendas/ferrol,Parque Ferrol Avenida Buque Escola Galatea s/n,15405,981338300,+34606158859,,mm.ferrol.atencioncliente@mediamarkt.es,43.503674,-8.199982,"7 de Enero; 24 de Marzo; 3 y 24 de Julio; 1 de Noviembre; 4, 8, 11 y 18 de Diciembre.",Todos los domingos (salvo los indicados). 6 de Enero; 25 y 28 de Marzo; 17 de Mayo; 24 de Junio; 25 de Julio; 15 de Agosto; 12 de Octubre; 6 y 25 de Diciembre.,
E254,28379,978,Albacete - Albacete,http://specials.mediamarkt.es/tiendas/albacete,"Avenida de la IlustraciÃ³n, nÂº 51 C.C. Imaginalia",02005,967555100,+34619351184,967555109,mm.albacete.atencion@mediamarkt.es,39.009130,-1.877570,"3 y 10 de Enero, 24 de Marzo, 31 de Mayo, 3 de Julio, 15 de Agosto, 27 de Noviembre, 4/8/11/18/26 de Diciembre de 2016.",,
E227,28356,957,Alicante - Alicante,http://specials.mediamarkt.es/tiendas/alicante,"Avda. Antonio Ramos CarratalÃ , s/n",03015,966020200,+34619708727,966020209,ivorra@mediamarkt.es,38.370085,-0.468566,"Domingos y 10 de Enero; 20, 24 y 27 de Marzo; 15 de Agosto; 4, 8, 11, y 18 de Diciembre.","6 de Enero; 19, 25 y 28 de Marzo; 7 de Abril; 24 de Junio; 12 de Octubre; 1 de Noviembre; 6 y 26 de Diciembre.",
E240,28368,984,Alicante - Elche,http://specials.mediamarkt.es/tiendas/elche,"C.C. El Sauce - Avda Crevillente, 25",03205,966657800,,966657809,arques@mediamarkt.es,38.258978,-0.725807,"3 y 10 de Enero; 19, 24 y 27 de Marzo; 4 de Abril; 1 de Noviembre; 4, 8, 11, 18 y 29 de Diciembre.","Domingos; 1 y 6 de Enero; 20, 25 y 28 de Marzo; 15 de Agosto; 12 de Octubre; 6 y 26 de Diciembre.",
E269,160452,283,Alicante - Finestrat,http://specials.mediamarkt.es/tiendas/finestrat,"Av. PaÃ¯s ValenciÃ , 14",03509,966815600,,966815609,mm.finestrat.atencion@mediamarkt.es,38.535121,-0.181895,,25 de Diciembre. 1 y 6 de Enero.,24 y 31 de diciembre de 10:00 a 20:00h.
E286,110452,368,Alicante - La Zenia,http://specials.mediamarkt.es/tiendas/la-zenia,"C.C. La Zenia - C/ Jade 2, local MS-01",03189,965359900,+34608535348,965359909,mm.orihuela.sat@mediamarkt.es,37.930559,-0.734632,Domingos y festivos(salvo los indicados).,1 y 6 de Enero; 1 de Mayo; 25 de Diciembre.,Julio y Agosto de 10:00 a 23:00.
E241,28369,969,Araba - Vitoria,http://specials.mediamarkt.es/tiendas/vitoria,"C.C. Boulevard - C/Zaramaga, 1",01013,945129600,+34619564545,945129609,mm.vitoria.atencioncliente@mediamarkt.es,42.861043,-2.664644,,"Todos los domingos. 1 y 6 de Enero; 24, 25 y 28 de Marzo; 28 de Abril; 25 de Julio; 5 y 15 de Agosto; 7 y 12 de Octubre; 1 de Noviembre; 6 y 8 de Diciembre.",24 y 31 de Diciembre. Horario de 10:00h a 20:00h
E228,28357,959,Asturias - Siero,http://specials.mediamarkt.es/tiendas/siero,"C.C. Intu Asturias - C/ Paredes, s/n",33429,985031000,,985031009,mm.siero.atencioncli@mediamarkt.es,43.392528,-5.798914,"3 de Enero; 24 de Marzo; 2 de Mayo; 3 de Julio; 15 de Agosto; 1 de Noviembre; 4, 11, 18 y 26 de Diciembre.","Todos los domingos (salvo los indicados). 25 y 29 de Marzo; 18 de Julio; 8 de Septiembre; 12 de Octubre; 6, 8 de Diciembre.",15 de Abril abierto de 10:00 a 18:00h y de 19:00 a 03:00h.
E270,96452,296,Badajoz - Badajoz,http://specials.mediamarkt.es/tiendas/badajoz,"Avda de Elvas S/N, Esquina C/ Santiago Soutullo S/N",06006,924209000,,924209009,mm.badajoz.atencionalcliente@mediamarkt.es,38.883484,-7.019902,"24 de Marzo; 2 de Mayo; 3 de Julio; 15 de Agosto; 4, 8, 11, 18 y 26 de Diciembre.",Domingos; 6 de Enero; 9 de Febrero; 25 de Marzo; 24 de Junio; 8 de Septiembre; 12 de Octubre; 1 de Noviembre; 25 de Diciembre.,
E268,28389,282,Barcelona - CornellÃ  - El Prat,http://specials.mediamarkt.es/tiendas/el-prat,"C.C. SPLAU - Plana del Galet, 1",08820,933743800,,933743809,mmprl1-atencion@mediamarkt.es,41.346986, 2.076698," 3, 10 de Enero; 3 de Julio; 15 de Agosto; 24 de septiembre; 4, 6, 8, 11 y 18 de Diciembre.",Domingos (menos los indicados); 1 y 6 de Enero; 25 y 28 de Marzo; 16 y 27 de Mayo; 24 de Junio; 12 de Octubre; 1 de Noviembre; 26 de Diciembre.,
E521,171052,1450,Barcelona - Diagonal Digital Store,http://specials.mediamarkt.es/tiendas/barceloan-digital-store,Av. Diagonal 477,08036,933553280,,,mm.diagonalfrancescmacia.atc@mediamarkt.es,41.392719,2.145809,"15 de Agosto; 1 de Noviembre; 4, 6, 8, 11, 18, 24 de Diciembre.","Todos los domingos (salvo los indicados en horarios especiales). Cerrado el 24 de Septiembre, 12 de Octubre y 26 de Diciembre.",2 y 9 de Octubre: horario de 12:00h a 20:00h. 31 de Diciembre: horario de 9:30h  a 20:00h.
E272,28390,233,Barcelona - Diagonal Mar,http://specials.mediamarkt.es/tiendas/diagonal-mar,"C.C. Diagonal Mar - Av. Diagonal, 3",08019,934857200,,934857209,mm.diagonal.atencioncliente@mediamarkt.es,41.410061,2.215641,"10 de Enero; 3 de Julio; 15 de Agosto; 1 de Noviembre; 4, 6, 8, 11, 18 de Diciembre","Domingos (menos los indicados) y 6 de Enero; 12 de Febrero, 25 y 28 de Marzo; 16 de Mayo; 24 de Junio; 24 de Septiembre; 12 de Octubre; 25 y 26 de Diciembre.",
E246,28373,948,Barcelona - GavÃ ,http://specials.mediamarkt.es/tiendas/gava,"C.C. Barnasud - C/ Progreso, 69",08850,936735400,+34609147417,936735409,mm.gava.atencioncliente@mediamarkt.es,41.295987,2.008349,"3 y 10 de Enero; 3 de Julio; 15 de Agosto; 1, 4, 6, 8, 11, 14 y 18 de Diciembre.",1 y 6 de Enero; 25 y 28 de Marzo; 1 y 16 de Mayo; 24 y 29 de Junio; 11 de Septiembre; 12 de Octubre; 1 de Noviembre; 25 y 26 de Diciembre.,
E243,27357,979,Barcelona - L'Hospitalet,http://specials.mediamarkt.es/tiendas/hospitalet,"Ed. Hesperia Tower - Av. Mare de DÃ©u de Bellvitge, 3",08907,934128900,+34684365652,934128909,mm.hospitalet.atencioncliente@mediamarkt.es,41.346596,2.107953,"10 Enero; 15 de Agosto; 24 de Septiembre; 1 de Noviembre; 6, 8, 11, 18 de Diciembre.",Domingos y 6 de Enero; 12 de Febrero; 25 y 28 de Marzo; 16 de Mayo; 24 de Junio; 3 de Julio; 18 de Septiembre; 12 de Octubre; 1 de Mayo; 25 y 26 de Diciembre.,
E222,28352,955,Barcelona - La Maquinista,http://specials.mediamarkt.es/tiendas/maquinista,"C.C. La Maquinista - C/ Ciutat d'AsunciÃ³, s/n",08030,935042100,+34638553478,935042109,mm.maquinista.atencioncliente@mediamarkt.es,41.440882,2.198696,"3 y 10 de Enero; 3 de Julio; 15 de Agosto; 1 de Noviembre; 4, 6, 8, 11 y 18 de Diciembre.","Todos los domingos (salvo los indicados) y 6 de Enero, 12 de Febrero, 25 y 28 de Marzo, 16 de Mayo, 24 de Junio, 24 de Septiembre, 12 de Octubre, 25 y 26 de Diciembre.",24 y 31 de Diciembre. Horario de 10:00h a 20:00h
E239,28367,976,Barcelona - MatarÃ³,http://specials.mediamarkt.es/tiendas/mataro,"C.C. MatarÃ³ Parc - C/ Estrasburg, 5",08304,937413700,+34616855925,,mm.mataro.atencionalcliente@mediamarkt.es,41.555055,2.434093,"10 de Enero; 3 de Julio; 15 de Agosto; 1 de Noviembre;  4, 6, 8, 11, 18 de Diciembre","Domingos (Salvo indicados ) y 6 Enero;  25, 28 de Marzo;  1, 16 de Mayo; 24 de Junio; 27 y 28 de Julio; 11 de Septiembre; 12 de Octubre; 25 y 26 de Diciembre.",
E291,131952,1215,Barcelona - Parets del VallÃ¨s,http://specials.mediamarkt.es/tiendas/parets-del-valles,Carrer Comte Montemolin 16,08150,935918800 - 935918801,626.279.969,,servicioclienteparets@mediamarkt.es,41.558893,2.231548,"3 y 10 de enero; 3 de julio; 15 de agosto; 27 de noviembre; 4,6,8,11 y 18 de diciembre","Domingos (salvo indicados en abierto), 1, 6 y 25 de enero; 25 y 28 de marzo; 16 de mayo; 24 de junio; 25 de julio; 12 de octubre; 1 de noviembre; 25 y 26 de diciembre",24 y 31 de Diciembre. De 9:30h a 20:00h
E230,28359,965,Barcelona - Sant Cugat,http://specials.mediamarkt.es/tiendas/sant-cugat,"Avda. Via Augusta, 2-14",08174,935835200,626470218,935835209,belena@mediamarkt.es,41.483643,2.053726,"10 Enero; 3 Julio; 15 Agosto; 1 Noviembre; 4, 6, 8, 11, 18 Diciembre","Domingos (salvo los indicados) y 6 Enero; 3, 25, 28 Marzo; 16 Mayo; 24, 29 Junio; 12 Octubre; 25, 26 Diciembre",
E515,162952,371,Barcelona - Terrassa,http://specials.mediamarkt.es/tiendas/terrassa,"C. C. y de Ocio Parc VallÃ©s Avda. textil, s/n",08223,937365600,,,mm.terrassa.atencioncliente@mediamarkt.es,41.547450,2.026240,"3, 10 de Enero. 3 de Julio. 15 de agosto. 4, 6, 8, 11 y 18 de Diciembre. Horario de 10:00 a 22:00h."," Domingos (salvo indicados en abierto), 1 y 6 de Enero. 24, 25 y 28 de Marzo. 16 de Mayo. 24 de Junio. 4 de Julio.12 de octubre. 25 y 26 de Diciembre",24 y 31 de Diciembre. Horario de 10:00h a 20:00h
E250,28376,971,Bizkaia - Barakaldo,http://specials.mediamarkt.es/tiendas/barakaldo,"P.C. MegaPark - Av. de la Ribera, 5",48902,944184200,+34609907362,944184209,mm.barakaldo.atencioncliente@mediamarkt.es,43.289420,-3.002785,,"Todos los domingos. 6 de Enero; 25 de Marzo; 4 y 25 de Julio; 15 de Agosto; 21 de Septiembre; 7, 12 de Octubre; 1 de Noviembre; 6, 8 y 25 de Diciembre.",
E287,35851,369,Bizkaia - Bilbao - Bilbondo,http://specials.mediamarkt.es/tiendas/bilbondo,"C.C.Bilbondo - Barrio Zalabandi, s/n",48970,944878700,+34606237402,,mm.bilbondo.atencioncliente@mediamarkt.es,43.228170,-2.874416,,"Todos los domingos. 1 y 6 de Enero; 24, 25 y 28 de Marzo; 4 y 25 de Julio; 15 de Agosto; 7 y 12 de Octubre; 1 de Noviembre; 6 y 8 de Diciembre.",24 y 31 de Diciembre. Horario de 10:00h a 20:00h
E267,28388,940,CÃ¡diz - BahÃ­a de CÃ¡diz,http://specials.mediamarkt.es/tiendas/cadiz,"P.I. Tres Caminos - C/ Calamar, s/n",11510,956598600,,956598609,bahiadecadiz@mediamarkt.es,36.469184,-6.169676,"29 de Febrero; 3 de Julio; 15 de Agosto; 4 de Septiembre; 12 de Octubre; 27 de Noviembre; 11, 18 y 26 de Diciembre.",6 de Enero; 11 de Febrero; 24 y 25 de Marzo; 2 de Mayo; 6 de Junio; 1 de Noviembre; 6 y 8 de Diciembre,
E253,28378,934,CÃ¡diz - Jerez de la Frontera,http://specials.mediamarkt.es/tiendas/jerez-de-lafrontera,"PolÃ­g. Sur Guadabajaque Manzano Crta. N-IV A, Km.641",11408,956358700,,956358709,jimenezmi@mediamarkt.es,36.669576,-6.153089,"29 de Febrero; 3 de Julio; 15 de Agosto; 4 de Septiembre; 12 de Octubre; 27 de Noviembre; 11, 18 y 26 de Diciembre.",6 de Enero; 24 y 25 de Marzo; 2 de Mayo; 24 de Septiembre; 10 de Octubre; 1 de Noviembre; 6 y 8 de Diciembre.,
E261,28385,842,CÃ¡diz - Los Barrios,http://specials.mediamarkt.es/tiendas/los-barrios,"C.C.Las Marismas - C/ Cabotaje, 14",11379,956584700,,956584709,mm.losbarrios.atencioncliente@mediamarkt.es,36.188386,-5.433029,"29 de Febrero; 3 de Julio; 15 de Agosto; 4 de Septiembre; 12 de Octubre; 27 de Noviembre; 11, 18 y 26 de Diciembre.","1 y 6 de Enero; 24 y 25 de Marzo; 2 y 16 de Mayo; 18 de Julio; 1 de Noviembre; 4, 6, 8 y 25 de Diciembre.",24 y 31 de Diciembre de 10:00h a 20:00h.
E283,38351,365,Cantabria - Santander,http://specials.mediamarkt.es/tiendas/santander,"C.C. Nuevo Alisal - c/ JoaquÃ­n Rodrigo, 10",39011,942247300,+34646587311,942247309,mm.santander.atencion@mediamarkt.es,43.454954,-3.866059,"24 de Marzo; 17, 24, 25, 28 y 31 de Julio; 7, 14, 15, 21, 28 y 30 de Agosto; 27 de Noviembre; 18 y 26 de Diciembre.",Todos los domingos (salvo los indicados). 25 de Marzo; 25 y 28 de Julio; 15 y 30 de Agosto; 15 de Septiembre; 12 de Octubre; 1 de Noviembre; 6 y 8 de Diciembre.,"Horario domingos y festivos de apertura de Agosto (7, 14, 15, 21, 28 y 30 de Agosto): de 11h a 21h"
E234,28362,966,CastellÃ³n - CastellÃ³n,http://specials.mediamarkt.es/tiendas/castellon,"C.C. Ciudad del Transporte - C/ Grecia, 4",12006,964739600,+34626146510,964739609,rubiol@mediamarkt.es,39.976963,-0.069032,"10 de Enero; 20, 24 y 27 de Marzo; 15 de Agosto; 4, 8, 11 y 18 de Diciembre.","Domingos; 6 de Enero; 29 de Febrero; 19, 25 y 28 de Marzo; 29 de Junio; 12 de Octubre; 1 de Noviembre; 6, 25 y 26 de Diciembre.",
E259,28383,933,CÃ³rdoba - CÃ³rdoba,http://specials.mediamarkt.es/tiendas/cordoba,"C. C. Connecta - Avda. Libertador MatÃ­as Delgado, s/n",14013,957229800,+34639478548,,trenado@mediamarkt.es,37.858850,-4.786564,"3 de Enero, 29 de Febrero, 3 de Julio, 15 de Agosto, 4 de Septiembre, 12 de Octubre, 27 de Noviembre, 11, 18 y 26 de Diciembre de 10:00h a 22:00h.","1 y 6 de Enero; 28 de Febrero; 1 y 2 de Mayo; 8 de Septiembre; 24 de Octubre; 1 de Noviembre; 6, 8 y 25 de Diciembre.",
E248,28374,974,Gipuzkoa - Donosti,http://specials.mediamarkt.es/tiendas/donosti,"C.C. Garbera - TravesÃ­a de Garbera, 1",20015,943447700,+34619789739,943447709,mm.donosti.rrhh@mediamarkt.es,43.307894,-1.944590,,"Todos los domingos. 6 y 20 de Enero; 24, 25 y 28 de Marzo; 25 de Julio; 15 de Agosto; 9 de Septiembre; 7 y 12 de Octubre; 1 de Noviembre; 6 y 8 de Diciembre.",
E225,28355,958,Girona - Girona,http://specials.mediamarkt.es/tiendas/girona,"C/ Vitoria-Gazteiz, 8",17003,972010700,+34616270102,972010709,mm.girona.atencioncliente@mediamarkt.es,41.958510,2.812036,"10 de Enero; 3 de Julio; 15 de Agosto; 12 de Octubre; 4, 6, 8, 11, 18 de Diciembre.",Domingos y 6 de Enero; 25 y 28 de Marzo; 16 de Mayo; 24 de Junio; 25 de Julio; 29 de Octubre; 1 de Noviembre; 25 y 26 de Diciembre.,
E260,28384,980,Granada - Granada,http://specials.mediamarkt.es/tiendas/granada,"C. C. KinÃ©polis - C/Luis BuÃ±uel, s/n",18197,958899700,,958899709,blancom@mediamarkt.es,37.213628,-3.618799,"3 de Enero, 3 de Mayo, 5 de Julio, 15 de Agosto, 6 de Septiembre, 12 de Octubre, 2 de Noviembre, 7, 20 y 27 de Diciembre de 10:00h a 22:00h.","1 y 6 de Enero, 12 y 28 de Febrero, 2 y 3 de Abril, 1 de Mayo, 4 de Junio, 8 y 25 de Diciembre.",
E281,28394,363,Huelva - Huelva,http://specials.mediamarkt.es/tiendas/huelva,"C.C. Marismas de PolvorÃ­n - Nuevo Colombino, s/n",21007,959215300,+34608085614,959215309,mm.huelva.atencioncliente@mediamarkt.es,37.258374,-6.923516,"29 de Febrero; 3 de Julio; 15 de Agosto; 4 de Septiembre; 12 de Octubre; 27 de Noviembre; 11, 18 y 26 de Diciembre.","28 de Febrero; 24 y 25 de Marzo; 1 y 2 de Mayo; 3 de Agosto; 8 de Septiembre; 1 de Noviembre; 6, 8 y 25 de Diciembre.",24 y 31 de Diciembre. Horario de 10:00h a 20:00h
E271,102452,289,Illes Balears - Palma de Mallorca,http://specials.mediamarkt.es/tiendas/mallorca,Calle Bisbe Pere Puigdorfila 1 - Centre d'Oci Ocimax,07010,871203200,+34629442577,871203299,mm.palmademallorca.atencioncliente@mediamarkt.es,39.595255,2.648266,"10 de Enero; 24 de Marzo; 3 de Abril; 22 de Mayo; 5 de Junio; 3 y 24 de Julio; 7 y 15 de Agosto; 4 de Septiembre; 12 de Octubre; 27 de Noviembre; 4, 8 y 18 de Diciembre.","Domingos y 6 y 20 de Enero; 1 de Marzo; 25 y 28 de Marzo; 24 de Junio; 1 de Noviembre; 6, 25 y 26 de Diciembre.",
E242,28370,970,La Rioja - LogroÃ±o,http://specials.mediamarkt.es/tiendas/logrono,"C.C. Berceo - C/ LÃ©rida, 4",26004,941279300,,941279309,mm.logrono.atencioncliente@mediamarkt.es,42.462211,-2.420836,"10 de Enero;  24 y 28 de Marzo; 12 de Junio; 3 y 24 de Julio; 4, 11 y 18 de Diciembre.","Todos los domingos. 6 de Enero; 25 de Marzo; 9 y 11 de Junio; 25 de Julio; 15 de Agosto; 21 de Septiembre; 12 de Octubre; 1 de Noviembre; 6, 8 y 25 de Diciembre.",
E508,121954,294,Las Palmas - Las Arenas,http://specials.mediamarkt.es/tiendas/las-arenas,C. C. Las Arenas -Carretera El RincÃ³n S/N,35010,928495400,+34654100367,928495439,grancanaria.lasarenas@mediamarkt.es,28.127841,-15.447360,"Abrimos los domingos y festivos (De Octubre a Abril), 24 de Marzo; 2 y 30 de Mayo; 15 de Agosto; 4, 6, 8, 11 y 18 de Diciembre.",Domingos y festivos a partir del 30/04/2016,
E233,28361,962,Las Palmas - Las Palmas de Gran Canaria,http://specials.mediamarkt.es/tiendas/las-palmas-de-gran-canaria,"C.C. Siete Palmas - C/ Pintor Felo MonzÃ³n, 44",35019,928423400,,928423409,laspalmas@mediamarkt.es,28.096978,-15.456217,"9 de Febrero; 24 de Marzo; 2 y 30 de Mayo; 15 de Agosto; 25 de Septiembre; 4, 6, 8, 11 y 18 de Diciembre.",Domingos (menos los indicados); 6 de Enero; 25 de Marzo; 1 de Mayo; 24 de Junio; 8 de Septiembre; 12 de Octubre; 1 de Noviembre; 25 de Diciembre.,
E277,28392,291,Las Palmas - Telde,http://specials.mediamarkt.es/tiendas/telde,"C.C. Las Terrazas - AutovÃ­a G.C 1, Km.5,5 Salida Cortijo",35220,928578000,,928578009,jimenezanto@mediamarkt.es,28.027512,-15.393952,"24 de Marzo; 2 y 30 de Mayo; 15 de Agosto; 4, 6, 8, 11 y 18 de Diciembre.",Domingos y 6 de Enero; 9 de Febrero; 25 de Marzo; 1 de Mayo; 24 de Junio; 8 de Septiembre; 12 de Octubre; 1 de Noviembre; 25 de Diciembre.,
E245,28372,973,LeÃ³n - LeÃ³n,http://specials.mediamarkt.es/tiendas/leon,"C.C. Espacio LeÃ³n - Avda. del PaÃ­s LeonÃ©s, s/n",24010,987277300,,987277309,perezrobe@mediamarkt.es,42.612379,-5.596032,"10 de Enero; 13 y 14 de Marzo; 19 y 26 de Junio; 3 y 10 de Julio; 21 de Agosto; 2 de Octubre; 4, 11 y 18 de Diciembre.","24 de Junio; 15 de Agosto; 5, 12 de Octubre; 1 de Noviembre; 6, 8, 26 de Diciembre.",
E278,117452,292,Lleida - Lleida,http://specials.mediamarkt.es/tiendas/lleida,"Avda. President Josep Irla, 1",25001,973188600,+34639501905,,mm.lleida.suministros@mediamarkt.es,41.606799,0.632690,"10 de Enero; 3 de Julio; 15 de Agosto; 12 de Octubre; 4, 6, 8, 11 y 18 de Diciembre.","Domingos y 25, 28 de Marzo; 11 y 16 de Mayo; 24 de Junio; 29 de Septiembre; 25 y 26 de Diciembre.",24 y 31 de Diciembre. Horario de 09:30h a 20:00h.
E282,35852,364,Lugo - Lugo,http://specials.mediamarkt.es/tiendas/lugo,"Avda Infanta, 93",27003,982298500,+34628551712,,mm.lugo.atencioncliente@mediamarkt.es,43.037586,-7.568980,"03 y 10 de Enero; 24 de Marzo; 3 de Abril; 24 de Julio; 1 de Noviembre; 4, 8, 11 y 18 de Diciembre.",Todos los domingos (salvo los indicados). 6 de Enero; 9 de Febrero; 25 de Marzo; 17 de Mayo; 24 de Junio; 25 de Julio; 15 de Agosto; 5 y 12 de Octubre; 6 y 25 de Diciembre.,
E238,28366,964,Madrid - AlcalÃ¡ de Henares,http://specials.mediamarkt.es/tiendas/alala-de-henares,"P.C. La Dehesa - C/ Humanes, 11",28805,918783500,+34696932803,918783509,alcaladehenares@mediamarkt.es,40.505499,-3.327666,Todos los domingos del aÃ±o. 19 de Marzo. 2 y 3 de Abril. 2 de Mayo. 4 de Junio. 6 y 15 de Agosto. 9 y 12 de Octubre. 8 de Diciembre. Abiertos de 11:00h a 21:00h.,1 y 6 de Enero. 1 de Mayo. 25 de Diciembre.,
E223,28353,953,Madrid - AlcorcÃ³n,http://specials.mediamarkt.es/tiendas/alcorcon,"C/ Estambul, s/n",28922,912111300,+34606702206,912111309,mm.alcorcon.atencioncliente@mediamarkt.es,40.349070,-3.848248,Todos los domingos del aÃ±o.,1 y 6 de Enero. 1 de Mayo y 25 de Diciembre.,"4, 11, 18 y 25 de Enero. 6, 13, 20 y 27 de Diciembre. Abiertos de 10:00h a 22:00h"
E292,122952,1216,Madrid - Castellana,http://specials.mediamarkt.es/tiendas/castellana,Paseo de la Castellana 200,28046,913537200,,,gutierrezv@mediamarkt.es,40.462376,-3.689098,Domingos y festivos (salvo los indicados).,1 y 6 de Enero. 1 de Mayo. 25 de Diciembre.,
E256,92452,1219,Madrid - Collado Villalba,http://specials.mediamarkt.es/tiendas/colado-villalba,"Av. Juan Carlos I , 46 Cra CoruÃ±a KM 40,70 C. C. Planet Ocio",28400,918561500,,,mm.colladovillalba.atencioncliente@mediamarkt.es,40.633040,-4.004443,Domingos y festivos (salvo los indicados).,6 de Enero; 1 de Mayo; 25 de Diciembre.,El 24 y 31 abriremos de 10 a 20h. El 4 de Enero. Abiertos de 10:00h a 22:00h.
E226,27355,961,Madrid - Getafe,http://specials.mediamarkt.es/tiendas/getafe,"Calle Islas Cies, 1",28905,916248000,+34636686540,916248009,mm.getafe.atencioncliente@mediamarkt.es,40.281255,-3.749953,Domingos y festivos (salvo los indicados).,"1 y 6 de Enero, 1 de Mayo, 25 de Diciembre.",
E290,157952,1214,Madrid - Goya,http://specials.mediamarkt.es/tiendas/goya,C/ AlcalÃ¡ 106,28009,915297100,,,mm.goya.atencioncliente@mediamarkt.es,40.425358,-3.673920,Domingos y festivos de 11:00h a 21:00h (salvo los indicados).,"1 y 6 de Enero, 1 de Mayo, 25 de Diciembre.",
E512,121952,295,Madrid - Islazul,http://specials.mediamarkt.es/tiendas/islazul,Centro Comercial Islazul -C/ Calderilla 1,28054,914521500,+34620213094,,mm.islazul.atencioncliente@mediamarkt.es,40.364793,-3.737256,Domingos y festivos (salvo los indicados).,1 y 6 de Enero. 25 de Diciembre,
E273,27358,938,Madrid - LeganÃ©s,http://specials.mediamarkt.es/tiendas/leganes,"C.C. Parquesur - Avda. Gran BretaÃ±a, s/n",28916,914951100,,914951109,mm.leganes.atencioncliente@mediamarkt.es,40.340347,-3.736160,Domingos y festivos (salvo los indicados),"1 y 6 de Enero, 1 de Mayo, 25 de Diciembre.",
E232,28360,960,Madrid - Majadahonda,http://specials.mediamarkt.es/tiendas/majadahonda,"C.C. Millenium - C/ AzafrÃ¡n, 13",28220,916261600,,916261609,mm.majadahonda.cliente@mediamarkt.es,40.456939,-3.868032,Domingos y festivos (salvo los indicados).,1 y 6 de Enero; 1 de Mayo; 25 de Diciembre.,
E251,28851,887,Madrid - Plenilunio,http://specials.mediamarkt.es/tiendas/plenilunio,C/Arrastaria 20,28022,913019900,+34669171841,913019909,mm.plenilunio.atencioncliente@mediamarkt.es,40.445356,-3.586399,Todos los domingos y festivos de 11:00h a 22:00h. (salvo los indicados como cerrado),1 y 6 de Enero. 1 de Mayo. 25 de Diciembre.,
E255,28380,930,Madrid - Rivas Vaciamadrid,http://specials.mediamarkt.es/tiendas/rivas-vaciamadrid,C.C. Rivas Futura - A3 Salida Km 17 ,28529,917794900,+34606798321,917794909,mm.rivas.atencioncliente@mediamarkt.es,40.337110,-3.533444,Todos los domingos y festivos.,"1 y 6 de Enero, 1 de Mayo y 25 de Diciembre.",Diciembre y Enero (Excepto festivos de estos meses) de 10:00 a 22:00. Domingos y Festivos de Febrero a Noviembre de 11:00h a 21:00h. 24 y 31 de diciembre de 10:00h a 20:00h.
E001,28351,952,Madrid - San SebastiÃ¡n de los Reyes,http://specials.mediamarkt.es/tiendas/san-sebastian-de-los-reyes,C.C. Megapark - Ctra. Nacional A-1 Salida 19 ,28700,912030500,,912030509,bolarin@mediamarkt.es,40.545635,-3.613720,Todos los domingos y festivos de 10:00h a 22:00h.,1 y 6 de Enero. 1 de Mayo. 25 de Diciembre.,
E229,28358,967,Madrid - Villaverde,http://specials.mediamarkt.es/tiendas/villaverde,"C/ Santa Petronila, 1",28021,917741300,,917741309,enjamio@mediamarkt.es,40.351599,-3.692103,Domingos y festivos (salvo los indicados),"1, 6 de Enero. 1 de Mayo. 25 de Diciembre.",
E274,27359,936,MÃ¡laga - MÃ¡laga,http://specials.mediamarkt.es/tiendas/malaga,"C/ Explanada de la estaciÃ³n, s/n",29002,951940200,+34606598044,951940209,mm.malaga.atencioncliente@mediamarkt.es,36.711487,-4.431303,"3 de Enero; 29 de Febrero; 3 de Julio; 15 de Agosto; 4 de Septiembre; 12 de Octubre; 27 de Noviembre; 11, 18 y 26 de Diciembre de 2016.","1 de Enero; 24 y 25 de Marzo; 2 de Mayo; 19 de Agosto; 8 de Septiembre; 1 de Noviembre; 6, 8 y 25 de Diciembre de 2016.",24 y 31 de Diciembre. Abiertos de 10:00h a 20:00h.
E516,164452,372,MÃ¡laga - MÃ¡laga Plaza Mayor,http://specials.mediamarkt.es/tiendas/plaza-mayor,"Plaza Mayor P. de Ocio, Alfonso Ponce de LeÃ³n, 3",29004,951299800,+34609956809,,mm.malagaplazamayor.atencioncliente@mediamarkt.es,36.656552,-4.477793,"29 de Febrero; 3 de Julio; 15 de Agosto; 4 de Septiembre; 12 de Octubre; 27 de Noviembre; 11, 18 y 26 de Diciembre","19 de Agosto, 8 de Septiembre, 1 de Noviembre, 4, 6, 8, 25 de Diciembre de 2016.",24 y 31 de diciembre de 10 a 20h.
E257,28381,949,Murcia - Cartagena,http://specials.mediamarkt.es/tiendas/cartagena,"P. I. Cabezo Beaza - Pza. Mediterraneo, 10-12",30353,968323900,+34667052794,968323909,mm.cartagena.atencioncliente@mediamarkt.es,37.624969,-0.951818,Domingos y festivos,1 y 6 de Enero; 11 de Septiembre; 25 de Diciembre.,
E263,62352,288,Murcia - Lorca,http://specials.mediamarkt.es/tiendas/lorca,"Parque comercial Almenara - Camino de enmedio, s/n",30813,968498300,+34629382911,968498309,mm.lorca.atencioncliente@mediamarkt.es,37.636350,-1.698760,"10 de Enero; 19 y 24 de Marzo; 3 de Julio; 2 y 12 de Octubre; 1 y 27 de Noviembre; 4, 8, 11, 18 y 26 de Dciembre.",Domingos; 25 de Marzo; 9 de Junio; 15 de Agosto; 8 de Septiembre; 12 de Octubre; 23 de Noviembre; 6 y 25 de Diciembre.,24 y 31 de Diciembre. Horario de 10:00h a 20:00h
E265,28387,889,Murcia - Nueva Condomina,http://specials.mediamarkt.es/tiendas/nueva-condomina,"C.C. Nueva Condomina - Parque Comercial Exterior, s/n",30110,968374400,+34620130440,968374409,mm.nuevacondomina.atencioncliente@mediamarkt.es,38.042713,-1.149703,"3 y 10 de Enero; 19 y 24 de Marzo; 3 de Julio; 2 y 12 de Octubre; 1 y 27 de Noviembre; 4, 8, 11, 18 y 26 de Diciembre.",Domingos; 1 y 6 de Enero; 25 y 29 de Marzo; 9 de Junio; 15 de Agosto; 13 de Septiembre; 6 y 25 de Diciembre.,
E244,28371,975,Murcia - Ronda Sur,http://specials.mediamarkt.es/tiendas/sur,"Avda de los Dolores, 1",30011,968898600,+34639515746,968898609,mm.murcia.atencioncliente@mediamarkt.es,37.976244,-1.113598,"10 de Enero; 19 y 24 de Marzo; 3 de Julio; 2 y 12 de Octubre; 1 y 27 de Noviembre; 4, 8, 11, 18 y 26 de Diciembre.",Domingos(salvo los indicados); 6 de Enero; 25 y 29 de Marzo; 9 de Junio; 15 de Agosto; 13 de Septiembre; 12 de Octubre; 6 y 25 de Diciembre.,
E264,29351,886,Navarra - Pamplona - Cordovilla,http://specials.mediamarkt.es/tiendas/cordovilla,"C. C. Galaria - Calle U, 2",31191,948166500,+34630680241,948166509,mm.cordovilla.atencion@mediamarkt.es,42.788322,-1.633917,3 de Enero; 24 de Marzo; 3 y 18 de Diciembre.,"Todos los domingos (salvo los indicados). 1 y 6 de Enero; 24, 25 y 28 de Marzo; 7 y 25 de Julio; 15 de Agosto; 12 de Octubre; 1 de Noviembre; 3, 6, 8 y 26 de Diciembre.",
E249,28375,838,Pontevedra - Vigo,http://specials.mediamarkt.es/tiendas/vigo,"C.C. A Laxe - C/CÃ¡novas del Castillo, 1",36202,986819000,,986819009,mm.vigo.atencioncliente@mediamarkt.es,42.240688,-8.728208,"10 de Enero; 24 de Marzo; 3 y 24 de Julio; 1 de Noviembre; 4, 8, 11, y 18 de Diciembre.",1 y 6 de Enero; 25 y 28 de Marzo; 17 de Mayo; 24 de Junio; 25 de Julio; 15 y 16 de Agosto; 12 de Octubre; 6 y 25 de Diciembre.,24 y 31 de Diciembre. Horario de 10:00h a 20:00h
E258,28382,935,S.C. Tenerife - Tenerife,http://specials.mediamarkt.es/tiendas/tenerife,"C.C. Continental - C/ Bentagay, 1-3",38111,922472200,+34629209767,922472209,mm.tenerife.atencioncliente@mediamarkt.es,28.426804,-16.299932,"24 de Marzo; 2 y 30 de Mayo; 15 de Agosto; 4, 6, 8, 11 y 18 de Diciembre.",Domingos y 6 de Enero; 2 y 9 de Febrero; 25 de Marzo; 3 de Mayo; 12 de Octubre; 1 de Noviembre; 25 de Diciembre.,
E509,121955,947,S. C. Tenerife - Tres de Mayo,http://specials.mediamarkt.es/tiendas/tres-de-mayo,C. C. Tres de Mayo Avenida Tres de Mayo,38003,922849300,,,tenerife.3demayo@mediamarkt.es,28.458807,-16.256361,"24 de Marzo; 2 y 30 de Mayo; 15 de Agosto; 4, 6, 8, 11 y 18 de Diciembre.","Domingos y 6 de Enero; 2 y 9 d Febrero; 25 de Marzo; 3 de Mayo; 12 de Octubre, 1 de Noviembre.",
E237,28365,972,Salamanca - Salamanca,http://specials.mediamarkt.es/tiendas/salamanca,"C.C. Capuchinos - C/Capuchinos, s/n, Sta Marta de Tormes",37900,923284300,+34606534802,923284309,mm.salamanca.atencioncliente@mediamarkt.es,40.948231,-5.650126,"10 de Enero; 13, 24 y 27 de Marzo; 1 de Mayo; 26 de Junio; 3 de Julio; 4 de Septiembre; 9, 23 y 30 de Octubre; 4, 11, 18 y 26 de Diciembre.",3 de Febrero; 25 de Marzo; 23 de Abril; 2 de Mayo; 29 de Julio; 15 de Agosto; 12 de Octubre; 1 de Noviembre; 6 y 8 de Diciembre.,
E252,28377,932,Sevilla - AlcalÃ¡ de Guadaira,http://specials.mediamarkt.es/tiendas/alcala-de-guadaira,"Ctra. Sevilla-Malaga, km. 7",41500,955657700,,955657709,mm.guadaira.atencionalcliente@mediamarkt.es,37.354077,-5.858899,"3 de Enero; 29 de Febrero; 3 de Julio; 15 de Agosto; 4 de Septiembre; 12 de Octubre; 27 de Noviembre; 11, 18, y 26 de Diciembre.",Todos los domingos y festivos (salvo los indicados). 3 de Junio; 21 de Septiembre.,
E266,29851,281,Sevilla - San Juan de Aznalfarache,http://specials.mediamarkt.es/tiendas/san-juan-de-aznalfarache,"C.C. Cavaleri - Ctra Sevilla-Mairena del Aljarafe, s/n",41920,954479000,+34606225638,954479009,mm.aznalfarache.atencioncliente@mediamarkt.es,37.362834,-6.044610,"29 de Febrero; 3 de Julio; 15 de Agosto; 4 de Septiembre; 27 de Noviembre; 11, 18 y 26 Diciembre.","Domingos; 6 de Enero; 24 y 25 de Marzo; 2 y 26 de Mayo; 24 de Junio; 1 de Noviembre; 6, 8 y 25 de Diciembre.",
E262,28386,983,Sevilla - Santa Justa,http://specials.mediamarkt.es/tiendas/justa,"El mirador de Santa Justa - Avda. Kansas City, s/n",41007,954589800,+34691457202,954589809,mm.santajusta.atencioncliente@mediamarkt.es,37.389780,-5.973834,"15 de Agosto; 4 de Septiembre; 12 de Octubre; 27 Noviembre y 11, 18 y 26 de Diciembre.","1 y 6 de Enero; 1 de Noviembre; 6, 8 y 25 de Diciembre.",24 y 31 de Diciembre de 10:00h a 20:00h.
E231,27356,981,Tarragona - Tarragona,http://specials.mediamarkt.es/tiendas/tarragona,Josep MarÃ­a Folchi I Torres 10 - Poligono Les Gavarres,43006,977258300,,977258309,mm.tarragona.atencioncliente@mediamarkt.es,41.132400,1.202600,"10 de Enero; 3, 17 de Julio; 15 de Agosto; 27 de Noviembre; 6, 8 y 11 de Diciembre",Domingos (salvo los indicados) y 6 de Enero; 25 y 28 de Marzo; 19 de Agosto; 23 de Septiembre; 1 de Noviembre; 12 y 26 de Diciembre.,
E284,81352,366,Toledo - Toledo,http://specials.mediamarkt.es/tiendas/toledo,"P.C. La AbadÃ­a Ctra de Toledo a Bargas (cm 4003) km 0,5",45003,925389900,+34618968023,925389909,mm.toledo.atencion@mediamarkt.es,39.905095,-4.017315,"Domingo, 3 de Enero de 2016 ; Domingo, 10 de Enero de 2016; Jueves, 24 de Marzo de 2016 ; Martes, 31 de Mayo de 2016 ; Domingo, 3 de Julio de 2016; Lunes, 15 de Agosto de 2016; Domingo, 27 de Noviembre de 2016 ; Domingo, 4 de Diciembre de 2016 ; Jueves, 8 de Diciembre de 2016; Domingo, 11 de Diciembre de 2016; Domingo, 18 de Diciembre de 2016; Lunes, 26 de Diciembre de 2016","1 de Enero, 6 de Enero, 25 de Marzo, 26 de Mayo, 12 de Octubre, 1 de Noviembre, 6 de Diciembre .",
E236,28364,963,Valencia - Alfafar,http://specials.mediamarkt.es/tiendas/alfafar,Parque Comercial IKEA Alfafar C/ Alcalde JosÃ© Puertes s/n,46910,963425600,+34606240914,963425609,alapont@mediamarkt.es,39.414058,-0.381401,"3  y 10 de Enero; 20, 24 y  27  de Marzo; 4 de Abril; 15 de Agosto; 4, 8, 11, y 18 de Diciembre.","1 y 6 de Enero; 19, 25 y 28 de Marzo; 8, 18 de Septiembre, 12 de Octubre; 1 de Noviembre; 6 ,25 y 26 de Diciembre.",<strong>20 y 27 de Marzo de 11:00h a 21:00h</strong>
E293,157452,1217,Valencia - ColÃ³n,http://specials.mediamarkt.es/tiendas/colon,C/ ColÃ³n 6,46004,961258000,+34636577350,,lopezj@mediamarkt.es,39.467270,-0.374427,Domingos y festivos (salvo los indicados),"1,6 Enero; 19 Marzo, 1 Mayo, 9 Octubre, 25 diciembre",Domingos: de 11h a 21h
E247,91452,839,Valencia - Gandia,http://specials.mediamarkt.es/tiendas/gandia,Av.Blasco IbaÃ±ez S/N,46701,962826900,,962826909,mm.gandia.atencionalcliente@mediamarkt.es,38.972502,-0.170637,"10 de Enero; 20, 24 y 27 de Marzo; 15 de Agosto; 4,8,11 y 18 de Dciembre.","Domingos(salvo los indicados); 6 de Enero; 19, 25 y 28 de Marzo; 4 de Abril; 3 y 12 de Octubre; 1 de Noviembre; 6,25 y 26 de Diciembre.",
E506,121953,939,Valencia - Massalfassar,http://specials.mediamarkt.es/tiendas/massalfassar,Parque Comercial El Manar S/N,46560,961369400,+34636392754,,mm.massalfassar.atencioncliente@mediamarkt.es,39.553234,-0.302180,"3 y 10 de Enero; 20, 24 y 27 de Marzo; 15 de Agosto; 4, 8, 11 y 18 de Diciembre de 2016.",25 de Diciembre. 1 y 6 de Enero de 2016.,Domingos 20 y 27 de Marzo de 11:00 a 21:00.
E235,28363,968,Valencia - Palacio de Congresos,http://specials.mediamarkt.es/tiendas/palacio-de-congresos,"Avda. Cortes Valencianas, 35",46015,963997200,+34608059237,963997209,mm.congresos.atencioncliente@mediamarkt.es,39.490188,-0.400219,Festivos de 11:00h a 21:00h.,"1 y 6 de Enero, 19 de Marzo, 1 de Mayo, 9 de Octubre y 25 de Diciembre",
E276,117453,290,Valencia - Quart de Poblet,http://specials.mediamarkt.es/tiendas/quart-de-poblet,(Junto C.C. Bonaire) C/ De la Saleta s/n. A3 Madrid (Salida 345),46930,963860700,,963860519,mmvaa2-atencion@mediamarkt.es,39.475264,-0.482958,"10 de Enero; 20, 24 y 27 de Marzo; 15 de Agosto; 4,8,11 y 18 de Dciembre.","Domingos; 6 de Enero; 19, 25 y 27 de Marzo; 4 de Abril; 5 de Septiembre; 12 de Octubre; 1 de Noviembre; 6,25 y 26 de Diciembre.",
E275,28391,885,Valladolid - Valladolid,http://specials.mediamarkt.es/tiendas/valladolid,"C.C. Equinoccio Park - AutovÃ­a de LeÃ³n, km 3",47610,983365900,+34608177401,983365909,mm.valladolid.atencion@mediamarkt.es,41.661032,-4.774242,"3 y 10 de Enero; 13, 24 y 27 de Marzo; 2 de Mayo; 26 de Junio; 3 de Julio; 4 de Septiembre; 9, 23, y 30 de Octubre; 4, 11, 18 y 26 de Diciembre.","1 y 6 de Enero; 25 de Marzo; 23 de Abril; 1 y 27 de Mayo; 15 de Agosto; 12 de Octubre; 1 y 2 de Noviembre; 6, 8 y 25 de Diciembre.",
E224,28354,956,Zaragoza - CC Gran Casa,http://specials.mediamarkt.es/tiendas/gran-casa,"C.C. Gran Casa, Actur - C/Maria Zambrano, 35",50018,976011500,,976011509,mm.zaragoza.atencioncliente@mediamarkt.es,41.671055,-0.890212,"10 de Enero; 6 de Marzo; 3 de Julio; 4 de Septiembre, 1 de Noviembre; 4, 8, 11 y 18 de Diciembre","Domingos y 1, 6 y 29 de Enero; 5, 24 y 25 de Marzo; 23 de Abril;  1 de Mayo; 15 de Agosto; 12 de Octubre; 6, 25 y 26 de Diciembre",De 09:00H a 20:00H los dias  24 y 31 de Diciembre
E279,28393,293,Zaragoza - Puerto Venecia,http://specials.mediamarkt.es/tiendas/puerto-venecia,"C.C. Puerto Venecia - C. Teatro Malibran, 18-20",50007,976720400,,976720409,mm.puertovenecia.atencioncliente@mediamarkt.es,41.609373,-0.891451,"10 de Enero; 6 de Marzo; 3 de Julio; 4 de Septiembre; 1 de Noviembre; 4, 8, 11 y 18 de Diciembre","Domingos y 6, 29 de Enero; 5, 24 y 25 de Marzo; 23 de Abril; 2 de Mayo; 15 de Agosto; 12 de Octubre; 6 y 26 de Diciembre",
